      2.10          N: GNSS NAV DATA                        RINEX VERSION / TYPE
fic2rin                                 03/07/2023 00:17:54 PGM / RUN BY / DATE
                                                            END OF HEADER
7  23  3  6  1 59 44.0  .228862278163D-03 -.750333128963D-11  .000000000000D+00
     .300000000000D+01  .401562500000D+02  .459483425043D-08  .258479075244D+01
     .195391476154D-05  .168438613182D-01  .940635800362D-05  .515358703041D+04
     .935840000000D+05  .577419996262D-07  .616697107156D+00 -.221654772758D-06
     .950672866541D+00  .191031250000D+03 -.222058066030D+01 -.778353850134D-08
     .630383400856D-09  .100000000000D+01  .225200000000D+04  .000000000000D+00
     .240000000000D+01  .000000000000D+00 -.111758708954D-07  .300000000000D+01
     .864000000000D+05  .400000000000D+01
32 23  3  6 12  0  0.0 -.415486283600D-03 -.111413100967D-10  .000000000000D+00
     .120000000000D+02 -.874687500000D+02  .448125809096D-08 -.125350843382D+01
    -.448711216450D-05  .670266221277D-02  .997632741928D-05  .515372095299D+04
     .129600000000D+06  .124797224998D-06 -.441990802920D+00  .894069671631D-07
     .959716073124D+00  .185406250000D+03 -.224111093517D+01 -.794211653532D-08
    -.184650548579D-09  .100000000000D+01  .225200000000D+04  .000000000000D+00
     .240000000000D+01  .000000000000D+00  .465661287308D-09  .120000000000D+02
     .122400000000D+06  .400000000000D+01
27 23  3  6 12  0  0.0  .872500240803D-04 -.875388650456D-11  .000000000000D+00
     .180000000000D+02 -.116562500000D+02  .402016745611D-08 -.191509556113D+01
    -.704079866409D-06  .114433830604D-01  .107511878014D-04  .515366353989D+04
     .129600000000D+06  .949949026108D-07  .270529017502D+01 -.137835741043D-06
     .968853912952D+00  .175750000000D+03  .706964006609D+00 -.757852996191D-08
    -.362515100209D-09  .100000000000D+01  .225200000000D+04  .000000000000D+00
     .240000000000D+01  .000000000000D+00  .186264514923D-08  .180000000000D+02
     .122400000000D+06  .400000000000D+01
26 23  3  6 12  0  0.0  .241891946644D-03  .113686837722D-12  .000000000000D+00
     .310000000000D+02 -.706250000000D+01  .564880672405D-08 -.135364330673D+00
    -.366941094398D-06  .787258998025D-02  .357069075108D-05  .515364144516D+04
     .129600000000D+06  .502914190292D-07  .159567891754D+01  .782310962677D-07
     .934187299759D+00  .293156250000D+03  .456249755719D+00 -.881393856449D-08
    -.186079179516D-09  .100000000000D+01  .225200000000D+04  .000000000000D+00
     .240000000000D+01  .000000000000D+00  .698491930962D-08  .310000000000D+02
     .122400000000D+06  .400000000000D+01
15 23  3  6 12  0  0.0  .191377475858D-04  .341060513165D-11  .000000000000D+00
     .740000000000D+02 -.114812500000D+03  .507521140293D-08 -.289338156233D+01
    -.611320137978D-05  .147661308292D-01  .827573239803D-05  .515369227791D+04
     .129600000000D+06  .225380063057D-06 -.570984627139D+00 -.152736902237D-06
     .932186013198D+00  .201500000000D+03  .118110894284D+01 -.812248119109D-08
    -.199651173416D-09  .100000000000D+01  .225200000000D+04  .000000000000D+00
     .240000000000D+01  .000000000000D+00 -.107102096081D-07  .740000000000D+02
     .122400000000D+06  .400000000000D+01
14 23  3  6 12  0  0.0 -.111330300570D-04  .977706804406D-11  .000000000000D+00
     .660000000000D+02 -.147812500000D+02  .528486299290D-08  .797881104391D+00
    -.771135091782D-06  .275748060085D-02  .375136733055D-05  .515366044807D+04
     .129600000000D+06  .298023223877D-07  .169387465890D+01  .204890966415D-07
     .949104372590D+00  .298062500000D+03 -.307927368345D+01 -.854071289783D-08
    -.285369029623D-09  .100000000000D+01  .225200000000D+04  .000000000000D+00
     .240000000000D+01  .000000000000D+00 -.791624188423D-08  .322000000000D+03
     .122400000000D+06  .400000000000D+01
31 23  3  6 12  0  0.0 -.210931058973D-03 -.909494701773D-12  .000000000000D+00
     .680000000000D+02  .450937500000D+02  .477162732886D-08  .913391815395D+00
     .266358256340D-05  .106301513733D-01  .919960439205D-05  .515417764091D+04
     .129600000000D+06 -.763684511185D-07  .636037785321D+00  .156462192535D-06
     .954778821159D+00  .198718750000D+03  .517558737462D+00 -.818676958324D-08
     .350371737246D-09  .100000000000D+01  .225200000000D+04  .000000000000D+00
     .240000000000D+01  .000000000000D+00 -.135041773319D-07  .680000000000D+02
     .122400000000D+06  .400000000000D+01
18 23  3  6 12  0  0.0 -.167944002897D-03 -.162572177942D-10  .000000000000D+00
     .141000000000D+03  .100468750000D+03  .410338520818D-08  .226134468240D+01
     .526010990143D-05  .298782717437D-02  .776723027229D-05  .515369148445D+04
     .129600000000D+06 -.558793544769D-07 -.250955925102D+01  .577419996262D-07
     .973561877377D+00  .235375000000D+03 -.311529685180D+01 -.792747306822D-08
     .373944147703D-09  .100000000000D+01  .225200000000D+04  .000000000000D+00
     .240000000000D+01  .000000000000D+00 -.838190317154D-08  .653000000000D+03
     .122400000000D+06  .400000000000D+01
28 23  3  6 12  0  0.0  .351211056113D-04  .114823706099D-10  .000000000000D+00
     .199000000000D+03  .389687500000D+02  .455840416154D-08 -.462559204362D-01
     .222772359848D-05  .962019315921D-03  .975281000137D-05  .515363728905D+04
     .129600000000D+06 -.130385160446D-07  .578133907792D+00  .931322574615D-08
     .961882498267D+00  .192156250000D+03  .169062415733D+01 -.799211861811D-08
     .466805158594D-09  .100000000000D+01  .225200000000D+04  .000000000000D+00
     .240000000000D+01  .000000000000D+00 -.139698386192D-08  .455000000000D+03
     .122400000000D+06  .400000000000D+01
23 23  3  6 12  0  0.0  .919075682759D-05  .193267624127D-11  .000000000000D+00
     .193000000000D+03 -.157187500000D+02  .465197948790D-08  .122848586814D+01
    -.897794961929D-06  .300247909036D-02  .186637043953D-05  .515364859772D+04
     .129600000000D+06  .335276126862D-07 -.150969640482D+01  .745058059692D-08
     .972279212749D+00  .349375000000D+03 -.309223689752D+01 -.839713548868D-08
    -.303584074067D-10  .100000000000D+01  .225200000000D+04  .000000000000D+00
     .240000000000D+01  .000000000000D+00 -.838190317154D-08  .961000000000D+03
     .122400000000D+06  .400000000000D+01
22 23  3  6 12  0  0.0  .439913477749D-03  .738964445191D-11  .000000000000D+00
     .890000000000D+02 -.809062500000D+02  .427267797419D-08 -.216911264217D+01
    -.415183603764D-05  .140458658570D-01  .104922801256D-04  .515360864830D+04
     .129600000000D+06  .186264514923D-06 -.350316611384D+00  .502914190292D-07
     .962799088127D+00  .173343750000D+03 -.182226007011D+01 -.764317551180D-08
    -.446447167745D-10  .100000000000D+01  .225200000000D+04  .000000000000D+00
     .340000000000D+01  .630000000000D+02 -.791624188423D-08  .890000000000D+02
     .122400000000D+06  .400000000000D+01
8  23  3  6 11 59 44.0 -.111631583422D-03 -.181898940355D-11  .000000000000D+00
     .540000000000D+02 -.189687500000D+02  .423160483476D-08 -.192956017973D+01
    -.110827386379D-05  .839394959621D-02  .112354755402D-04  .515366788864D+04
     .129584000000D+06  .186264514923D-08  .268265274805D+01 -.102445483208D-06
     .959972284207D+00  .163812500000D+03  .230181037016D+00 -.779032449828D-08
    -.387158983869D-09  .100000000000D+01  .225200000000D+04  .000000000000D+00
     .240000000000D+01  .000000000000D+00  .512227416039D-08  .540000000000D+02
     .123420000000D+06  .400000000000D+01
10 23  3  6 11 59 44.0 -.274167396128D-04 -.159161572810D-11  .000000000000D+00
     .900000000000D+01 -.223437500000D+02  .456804742037D-08  .355180783277D-01
    -.110641121864D-05  .845259765629D-02  .207871198654D-05  .515368262672D+04
     .129584000000D+06  .167638063431D-07 -.148288962623D+01  .102445483208D-06
     .977161657951D+00  .349218750000D+03 -.243346886893D+01 -.843749431265D-08
    -.239295681911D-10  .100000000000D+01  .225200000000D+04  .000000000000D+00
     .240000000000D+01  .000000000000D+00  .232830643654D-08  .900000000000D+01
     .124380000000D+06  .400000000000D+01
25 23  3  6 11 59 28.0  .425469595939D-03  .306954461848D-11  .000000000000D+00
     .100000000000D+01 -.856250000000D+01  .518271588092D-08  .626873800221D+00
    -.379979610443D-06  .111784095643D-01  .420212745667D-05  .515375900459D+04
     .129568000000D+06 -.128522515297D-06  .164986406463D+01  .707805156708D-07
     .953390763524D+00  .295156250000D+03  .103720525066D+01 -.861035865600D-08
    -.263225250103D-09  .100000000000D+01  .225200000000D+04  .000000000000D+00
     .240000000000D+01  .000000000000D+00  .558793544769D-08  .100000000000D+01
     .125430000000D+06  .400000000000D+01
9  23  3  6 11 59 44.0 -.205971300602D-03  .738964445191D-11  .000000000000D+00
     .100000000000D+01 -.109500000000D+03  .457661920599D-08 -.158394949054D+01
    -.560469925404D-05  .243540690280D-02  .105835497379D-04  .515366778564D+04
     .129584000000D+06 -.223517417908D-07 -.454805855575D+00  .316649675369D-07
     .956041468679D+00  .176250000000D+03  .196695012904D+01 -.805176395972D-08
    -.222509268404D-09  .100000000000D+01  .225200000000D+04  .000000000000D+00
     .240000000000D+01  .000000000000D+00  .139698386192D-08  .100000000000D+01
     .125760000000D+06  .400000000000D+01
